id,created,state,company,name,familyname,address,zipcity,phone,email1,countrystate,message,more_info,contactme
2,"2023-05-29 20:46:52",1,"Tapflo Sp. z o.o.",Sebastian,Baranowski,"Czatkowska 4B",83-110,"xxx yyy zzz",it@tapflo.pl,Poland,"//test02
duży formularz","Send more company info","Contact me for further assistance"
7,"2023-06-28 18:45:28",1,"Websolutions - usługi informatyczne Marcin Grzywiński",Marcin,Grzywiński,"Heweliusza 11",Gdańsk,511688734,grzywa.mg@wp.pl,pomorskie,"TEST IE BIG",,"Contact me for further assistance"
20,"2024-01-28 17:26:39",1,"narayani enterprises","Dattatray ",Bhagat,"Baramati ",412306,,bhagatdattatray@gmail.com,Maharashtra,"Quotation ","Send more company info","Contact me for further assistance"
27,"2024-04-03 22:20:39",1,"Arceo Limited ","Bertie "," Moore","57 Rue Van Eyck 1000 Brussels",1000,"    +32 0991 604801",bertie.moore@zohomail.eu,Belgium,"
Hello,

 

I hope you are well.

Please can you let me know the availability and offering price for the purchase of LOBE PUMPS, and DOUBLE SEAT MIXPROOF VALVE as per our profile plan and technical Specifications?  

Also, kindly provide us with your company catalog or brochure so we can review and provide you with our Technical Specifications/profile plan and other detailed requirements for your review and quoting reference, and we will also need this for our future purchasing references.

Please let me know if you would be able to assist and if you are not the persons in charge, kindly provide me with the contact details and email address of the right person, so that we can follow up immediately for the purchase of this LOBE PUMPS, and DOUBLE SEAT MIXPROOF VALVE

Your prompt action and response in this regard would be highly appreciated.



Best Regards



Name: Bertie Moore 
INTERNATIONAL PURCHASING MANAGER
Address: 57 Rue Van Eyck 1000 Brussels.
Tel. +32 0991 604801. Fax +32 0991 604289
Email: bertie.moore@zohomail.eu","Send more company info","Contact me for further assistance"
33,"2024-05-30 23:00:53",1,"Aliance grup",Marcel,stanislav,Allas20535,Malmo,0775451199,stanislav.marcel@aliancegroup-se.com,malmo,"Hi, i am Marcel Stanislav sales Assistant from Aliance Group Sweden.

Please kindly advise if your company can export to Sweden?

We have active projects that requires most products and services as seen
on your website.

If yes kindly keep us informed upon your feedback so we can send our
preferred listing for quote.
 
For further information or have any questions, please do not hesitate to
write us.","Send more company info","Contact me for further assistance"
34,"2024-06-01 12:54:22",1,"Liberty Painted USA",Rob,Isaacson,"5210 Spruce st",Bellaire,9049063049,risaacson@libertypalnted.com,TX,"Hello, Please confirm if you ship to California, USA

Kindly have a sales representative email me to discuss our products of interest further 

I remain at your disposal",,"Contact me for further assistance"
36,"2024-06-13 13:07:21",1,PepsiCo,Gavan,Murphy,"Little Island",Cork,0863972850,gavan.murphy@pepsico.com,Cork,"Interested in Atex IBC Mixing Solutions and how to clean.","Send more company info","Contact me for further assistance"
